CCSDS_OMM_VERS = 2.0
CREATION_DATE  = 
ORIGINATOR     = 

OBJECT_NAME    = SL-16 R/B
OBJECT_ID      = 1993-016B
CENTER_NAME    = EARTH
REF_FRAME      = TEME
TIME_SYSTEM    = UTC
MEAN_ELEMENT_THEORY = SGP/SGP4

EPOCH          = 2026-01-04T04:20:15.009792
MEAN_MOTION    = 14.15296523
ECCENTRICITY   = .0008111
INCLINATION    = 71.0090
RA_OF_ASC_NODE = 350.6698
ARG_OF_PERICENTER = 52.2150
MEAN_ANOMALY   = 307.9706

EPHEMERIS_TYPE = 0
CLASSIFICATION_TYPE = U
NORAD_CAT_ID   = 22566
ELEMENT_SET_NO = 999
REV_AT_EPOCH   = 69304
BSTAR          = .50308E-5
MEAN_MOTION_DOT = -.38E-6
MEAN_MOTION_DDOT = 0

CCSDS_OMM_VERS = 2.0
CREATION_DATE  = 
ORIGINATOR     = 

OBJECT_NAME    = COSMOS 2242
OBJECT_ID      = 1993-024A
CENTER_NAME    = EARTH
REF_FRAME      = TEME
TIME_SYSTEM    = UTC
MEAN_ELEMENT_THEORY = SGP/SGP4

EPOCH          = 2026-01-04T00:58:18.895872
MEAN_MOTION    = 14.96225097
ECCENTRICITY   = .0016899
INCLINATION    = 82.5202
RA_OF_ASC_NODE = 328.5275
ARG_OF_PERICENTER = 156.9225
MEAN_ANOMALY   = 203.2760

EPHEMERIS_TYPE = 0
CLASSIFICATION_TYPE = U
NORAD_CAT_ID   = 22626
ELEMENT_SET_NO = 999
REV_AT_EPOCH   = 77072
BSTAR          = .35947E-3
MEAN_MOTION_DOT = .409E-4
MEAN_MOTION_DDOT = 0

CCSDS_OMM_VERS = 2.0
CREATION_DATE  = 
ORIGINATOR     = 

OBJECT_NAME    = SL-16 R/B
OBJECT_ID      = 1993-059B
CENTER_NAME    = EARTH
REF_FRAME      = TEME
TIME_SYSTEM    = UTC
MEAN_ELEMENT_THEORY = SGP/SGP4

EPOCH          = 2026-01-03T16:23:39.498720
MEAN_MOTION    = 14.17219329
ECCENTRICITY   = .00191833
INCLINATION    = 70.9901
RA_OF_ASC_NODE = 148.2138
ARG_OF_PERICENTER = 304.6335
MEAN_ANOMALY   = 55.2980

EPHEMERIS_TYPE = 0
CLASSIFICATION_TYPE = U
NORAD_CAT_ID   = 22803
ELEMENT_SET_NO = 999
REV_AT_EPOCH   = 67032
BSTAR          = -.29366771E-4
MEAN_MOTION_DOT = -.108E-5
MEAN_MOTION_DDOT = 0

CCSDS_OMM_VERS = 2.0
CREATION_DATE  = 
ORIGINATOR     = 

OBJECT_NAME    = ARIANE 40 R/B
OBJECT_ID      = 1993-061H
CENTER_NAME    = EARTH
REF_FRAME      = TEME
TIME_SYSTEM    = UTC
MEAN_ELEMENT_THEORY = SGP/SGP4

EPOCH          = 2026-01-04T04:11:03.937632
MEAN_MOTION    = 14.32819504
ECCENTRICITY   = .0011767
INCLINATION    = 98.5043
RA_OF_ASC_NODE = 74.2928
ARG_OF_PERICENTER = 113.7284
MEAN_ANOMALY   = 246.5136

EPHEMERIS_TYPE = 0
CLASSIFICATION_TYPE = U
NORAD_CAT_ID   = 22830
ELEMENT_SET_NO = 999
REV_AT_EPOCH   = 68486
BSTAR          = .19915E-3
MEAN_MOTION_DOT = .5E-5
MEAN_MOTION_DDOT = 0

CCSDS_OMM_VERS = 2.0
CREATION_DATE  = 
ORIGINATOR     = 

OBJECT_NAME    = COSMOS 2278
OBJECT_ID      = 1994-023A
CENTER_NAME    = EARTH
REF_FRAME      = TEME
TIME_SYSTEM    = UTC
MEAN_ELEMENT_THEORY = SGP/SGP4

EPOCH          = 2026-01-04T04:01:49.635840
MEAN_MOTION    = 14.14355796
ECCENTRICITY   = .000733
INCLINATION    = 71.0545
RA_OF_ASC_NODE = 310.0866
ARG_OF_PERICENTER = 138.7701
MEAN_ANOMALY   = 221.3976

EPHEMERIS_TYPE = 0
CLASSIFICATION_TYPE = U
NORAD_CAT_ID   = 23087
ELEMENT_SET_NO = 999
REV_AT_EPOCH   = 63568
BSTAR          = .27022E-3
MEAN_MOTION_DOT = .47E-5
MEAN_MOTION_DDOT = 0

CCSDS_OMM_VERS = 2.0
CREATION_DATE  = 
ORIGINATOR     = 

OBJECT_NAME    = SL-16 R/B
OBJECT_ID      = 1994-023B
CENTER_NAME    = EARTH
REF_FRAME      = TEME
TIME_SYSTEM    = UTC
MEAN_ELEMENT_THEORY = SGP/SGP4

EPOCH          = 2026-01-03T23:03:45.063072
MEAN_MOTION    = 14.14999516
ECCENTRICITY   = .0002593
INCLINATION    = 70.9980
RA_OF_ASC_NODE = 206.8217
ARG_OF_PERICENTER = 354.6620
MEAN_ANOMALY   = 5.4475

EPHEMERIS_TYPE = 0
CLASSIFICATION_TYPE = U
NORAD_CAT_ID   = 23088
ELEMENT_SET_NO = 999
REV_AT_EPOCH   = 63693
BSTAR          = .1383E-3
MEAN_MOTION_DOT = .22E-5
MEAN_MOTION_DDOT = 0

CCSDS_OMM_VERS = 2.0
CREATION_DATE  = 
ORIGINATOR     = 

OBJECT_NAME    = SL-16 R/B
OBJECT_ID      = 1994-074B
CENTER_NAME    = EARTH
REF_FRAME      = TEME
TIME_SYSTEM    = UTC
MEAN_ELEMENT_THEORY = SGP/SGP4

EPOCH          = 2026-01-04T01:23:23.347968
MEAN_MOTION    = 14.79321007
ECCENTRICITY   = .0007964
INCLINATION    = 97.7179
RA_OF_ASC_NODE = 37.4729
ARG_OF_PERICENTER = 75.1486
MEAN_ANOMALY   = 313.8921

EPHEMERIS_TYPE = 0
CLASSIFICATION_TYPE = U
NORAD_CAT_ID   = 23343
ELEMENT_SET_NO = 999
REV_AT_EPOCH   = 67769
BSTAR          = .12405E-3
MEAN_MOTION_DOT = .874E-5
MEAN_MOTION_DDOT = 0

CCSDS_OMM_VERS = 2.0
CREATION_DATE  = 
ORIGINATOR     = 

OBJECT_NAME    = SL-16 R/B
OBJECT_ID      = 1994-077B
CENTER_NAME    = EARTH
REF_FRAME      = TEME
TIME_SYSTEM    = UTC
MEAN_ELEMENT_THEORY = SGP/SGP4

EPOCH          = 2026-01-04T00:55:23.069280
MEAN_MOTION    = 14.15550034
ECCENTRICITY   = .0004948
INCLINATION    = 70.9829
RA_OF_ASC_NODE = 128.5041
ARG_OF_PERICENTER = 265.8791
MEAN_ANOMALY   = 94.1766

EPHEMERIS_TYPE = 0
CLASSIFICATION_TYPE = U
NORAD_CAT_ID   = 23405
ELEMENT_SET_NO = 999
REV_AT_EPOCH   = 60708
BSTAR          = -.16378E-4
MEAN_MOTION_DOT = -.8E-6
MEAN_MOTION_DDOT = 0

CCSDS_OMM_VERS = 2.0
CREATION_DATE  = 
ORIGINATOR     = 

OBJECT_NAME    = ARIANE 40+ R/B
OBJECT_ID      = 1995-021B
CENTER_NAME    = EARTH
REF_FRAME      = TEME
TIME_SYSTEM    = UTC
MEAN_ELEMENT_THEORY = SGP/SGP4

EPOCH          = 2026-01-04T04:16:12.262944
MEAN_MOTION    = 14.39716445
ECCENTRICITY   = .0006284
INCLINATION    = 98.4620
RA_OF_ASC_NODE = 76.4932
ARG_OF_PERICENTER = 344.0650
MEAN_ANOMALY   = 41.8767

EPHEMERIS_TYPE = 0
CLASSIFICATION_TYPE = U
NORAD_CAT_ID   = 23561
ELEMENT_SET_NO = 999
REV_AT_EPOCH   = 60996
BSTAR          = .19197E-3
MEAN_MOTION_DOT = .558E-5
MEAN_MOTION_DDOT = 0

CCSDS_OMM_VERS = 2.0
CREATION_DATE  = 
ORIGINATOR     = 

OBJECT_NAME    = SL-16 R/B
OBJECT_ID      = 1995-058B
CENTER_NAME    = EARTH
REF_FRAME      = TEME
TIME_SYSTEM    = UTC
MEAN_ELEMENT_THEORY = SGP/SGP4

EPOCH          = 2026-01-04T04:24:23.906592
MEAN_MOTION    = 14.15484866
ECCENTRICITY   = .0014181
INCLINATION    = 71.0226
RA_OF_ASC_NODE = 315.6832
ARG_OF_PERICENTER = 225.0871
MEAN_ANOMALY   = 134.9102

EPHEMERIS_TYPE = 0
CLASSIFICATION_TYPE = U
NORAD_CAT_ID   = 23705
ELEMENT_SET_NO = 999
REV_AT_EPOCH   = 55872
BSTAR          = .20067E-3
MEAN_MOTION_DOT = .345E-5
MEAN_MOTION_DDOT = 0

CCSDS_OMM_VERS = 2.0
CREATION_DATE  = 
ORIGINATOR     = 

OBJECT_NAME    = SL-16 R/B
OBJECT_ID      = 1996-051B
CENTER_NAME    = EARTH
REF_FRAME      = TEME
TIME_SYSTEM    = UTC
MEAN_ELEMENT_THEORY = SGP/SGP4

EPOCH          = 2026-01-04T03:38:26.317536
MEAN_MOTION    = 14.12399379
ECCENTRICITY   = .0019364
INCLINATION    = 70.7599
RA_OF_ASC_NODE = 311.8441
ARG_OF_PERICENTER = 233.9106
MEAN_ANOMALY   = 126.0221

EPHEMERIS_TYPE = 0
CLASSIFICATION_TYPE = U
NORAD_CAT_ID   = 24298
ELEMENT_SET_NO = 999
REV_AT_EPOCH   = 51253
BSTAR          = .51074E-4
MEAN_MOTION_DOT = .45E-6
MEAN_MOTION_DDOT = 0

CCSDS_OMM_VERS = 2.0
CREATION_DATE  = 
ORIGINATOR     = 

OBJECT_NAME    = ORBVIEW 2 (SEASTAR)
OBJECT_ID      = 1997-037A
CENTER_NAME    = EARTH
REF_FRAME      = TEME
TIME_SYSTEM    = UTC
MEAN_ELEMENT_THEORY = SGP/SGP4

EPOCH          = 2026-01-04T00:17:09.835296
MEAN_MOTION    = 14.35437507
ECCENTRICITY   = .0001399
INCLINATION    = 98.8473
RA_OF_ASC_NODE = 166.6494
ARG_OF_PERICENTER = 236.9197
MEAN_ANOMALY   = 123.1853

EPHEMERIS_TYPE = 0
CLASSIFICATION_TYPE = U
NORAD_CAT_ID   = 24883
ELEMENT_SET_NO = 999
REV_AT_EPOCH   = 49919
BSTAR          = .20736E-3
MEAN_MOTION_DOT = .549E-5
MEAN_MOTION_DDOT = 0

