SL-16 R/B               
1 22566U 93016B   26004.18072928 -.00000038  00000+0  50308-5 0  9991
2 22566  71.0090 350.6698 0008111  52.2150 307.9706 14.15296523693045
COSMOS 2242             
1 22626U 93024A   26004.04049648  .00004090  00000+0  35947-3 0  9996
2 22626  82.5202 328.5275 0016899 156.9225 203.2760 14.96225097770722
SL-16 R/B               
1 22803U 93059B   26003.68309605 -.00000108  00000+0 -29367-4 0  9990
2 22803  70.9901 148.2138 0019183 304.6335  55.2980 14.17219329670322
ARIANE 40 R/B           
1 22830U 93061H   26004.17435113  .00000500  00000+0  19915-3 0  9993
2 22830  98.5043  74.2928 0011767 113.7284 246.5136 14.32819504684862
COSMOS 2278             
1 23087U 94023A   26004.16793560  .00000470  00000+0  27022-3 0  9993
2 23087  71.0545 310.0866 0007330 138.7701 221.3976 14.14355796635681
SL-16 R/B               
1 23088U 94023B   26003.96093823  .00000220  00000+0  13830-3 0  9991
2 23088  70.9980 206.8217 0002593 354.6620   5.4475 14.14999516636938
SL-16 R/B               
1 23343U 94074B   26004.05790912  .00000874  00000+0  12405-3 0  9997
2 23343  97.7179  37.4729 0007964  75.1486 313.8921 14.79321007677692
SL-16 R/B               
1 23405U 94077B   26004.03846145 -.00000080  00000+0 -16378-4 0  9992
2 23405  70.9829 128.5041 0004948 265.8791  94.1766 14.15550034607087
ARIANE 40+ R/B          
1 23561U 95021B   26004.17791971  .00000558  00000+0  19197-3 0  9995
2 23561  98.4620  76.4932 0006284 344.0650  41.8767 14.39716445609968
SL-16 R/B               
1 23705U 95058B   26004.18361003  .00000345  00000+0  20067-3 0  9997
2 23705  71.0226 315.6832 0014181 225.0871 134.9102 14.15484866558729
SL-16 R/B               
1 24298U 96051B   26004.15169349  .00000045  00000+0  51074-4 0  9995
2 24298  70.7599 311.8441 0019364 233.9106 126.0221 14.12399379512531
ORBVIEW 2 (SEASTAR)     
1 24883U 97037A   26004.01191939  .00000549  00000+0  20736-3 0  9994
2 24883  98.8473 166.6494 0001399 236.9197 123.1853 14.35437507499195
